STARLINK-1661           
1 46355U 20062AG  26068.14213265  .00016603  00000+0  57075-3 0  9991
2 46355  53.1612  13.5256 0001035  95.5841 264.5278 15.30239796304316
TOMORROW-S2             
1 60485U 24149T   26068.75188364  .00008133  00000+0  27683-3 0  9990
2 60485  97.3857 150.0385 0001648 234.3331 125.7757 15.30674935 86869
